{"type":"FeatureCollection", "features": [
{"type":"Feature","geometry":{"type":"Point","coordinates":[18.6657306,50.294113]},"properties":{"@id":"node/28900665","@relations":[{"role":"admin_centre","rel":2425993,"reltags":{"admin_level":"8","boundary":"administrative","name":"Gliwice","name:ar":"غليفيتسه","name:be":"Глівіцы","name:bg":"Гливице","name:cs":"Hlivice","name:de":"Gleiwitz","name:fa":"گلیویتسه","name:ja":"グリヴィツェ","name:ko":"글리비체","name:lt":"Glivicės","name:lv":"Glivice","name:pl":"Gliwice","name:prefix":"miasto","name:ru":"Гливице","name:sr":"Гљивице","name:szl":"Glywicy","name:uk":"Ґлівіце","name:zh":"格利维采","population":"176009","population:date":"2021-06-30","source:population":"https://www.polskawliczbach.pl/Gliwice","teryt:rm":"96","teryt:simc":"0940000","type":"boundary","wikidata":"Q105084","wikipedia":"pl:Gliwice"}}]},"id":"node/28900665"},
{"type":"Feature","geometry":{"type":"Point","coordinates":[18.8554757,50.4445194]},"properties":{"@id":"node/29072095","@relations":[{"role":"admin_centre","rel":2812251,"reltags":{"admin_level":"8","boundary":"administrative","name":"Tarnowskie Góry","name:cs":"Tarnovské Hory","name:de":"Tarnowitz","name:ja":"タルノフスキェ・グルィ","name:la":"Montes Tarnovicenses","name:pl":"Tarnowskie Góry","name:prefix":"miasto","name:ru":"Тарновске-Гуры","name:szl":"Tarnowske Gůry","name:uk":"Тарновські Ґури","old_name":"Tarnovitz","population":"61789","population:date":"2021-06-30","source:population":"https://www.polskawliczbach.pl/Tarnowskie_Gory","type":"boundary","wikidata":"Q329833","wikipedia":"pl:Tarnowskie Góry"}}]},"id":"node/29072095"},
{"type":"Feature","geometry":{"type":"Point","coordinates":[18.9544466,50.2978791]},"properties":{"@id":"node/29573582","@relations":[{"role":"admin_centre","rel":2425990,"reltags":{"admin_level":"8","boundary":"administrative","name":"Chorzów","name:ar":"خورزوف","name:be":"Гожаў","name:bg":"Хожов","name:de":"Chorzow","name:fa":"خوژوف","name:ja":"ホジュフ","name:ko":"호주프","name:lt":"Chožuvas","name:lv":"Hožova","name:pl":"Chorzów","name:prefix":"miasto","name:ru":"Хожув","name:sr":"Хожов","name:szl":"Chorzůw","name:uk":"Хожув","name:zh":"霍茹夫","old_name:be":"Кенігсхютэ","old_name:de":"Königshütte","old_name:ja":"ケーニヒスヒュッテ","old_name:ko":"쾨니히쉬테","old_name:lv":"Krulevsku Hutu","old_name:pl":"Królewska Huta","old_name:ru":"Кёнигсхютте","old_name:szl":"Krōlewskŏ Huta","old_name:uk":"Кенігсгютте","population":"106272","population:date":"2021-06-30","source:population":"https://www.polskawliczbach.pl/Chorzow","type":"boundary","wikidata":"Q104302","wikipedia":"pl:Chorzów"}}]},"id":"node/29573582"},
{"type":"Feature","geometry":{"type":"Point","coordinates":[19.04996,50.05932]},"properties":{"@id":"node/31900360","@relations":[{"role":"admin_centre","rel":5605445,"reltags":{"admin_level":"8","boundary":"administrative","name":"Świerczyniec","type":"boundary","wikidata":"Q9396385","wikipedia":"pl:Świerczyniec (województwo śląskie)"}}]},"id":"node/31900360"},
{"type":"Feature","geometry":{"type":"Point","coordinates":[19.0275635,50.3052029]},"properties":{"@id":"node/31900531","@relations":[{"role":"admin_centre","rel":2425999,"reltags":{"admin_level":"8","boundary":"administrative","name":"Siemianowice Śląskie","name:bg":"Шемяновице Силезко","name:de":"Siemianowitz","name:ja":"シェミャノヴィツェ・シロンスキェ","name:ko":"시에미아노비체실롱스키에","name:lt":"Silezijos Semianovicai","name:lv":"Semjanovice Slonske","name:mk":"Шемјановице Шлонске","name:pl":"Siemianowice Śląskie","name:prefix":"miasto","name:ru":"Семяновице-Слёнске","name:sr":"Сјемјановице Слонскје","name:szl":"Śymjanowicy","name:uk":"Семяновіце-Шльонські","name:zh":"希隆斯克地區謝米亞諾維采","type":"boundary","wikidata":"Q158485","wikipedia":"pl:Siemianowice Śląskie"}}]},"id":"node/31900531"},
{"type":"Feature","geometry":{"type":"Point","coordinates":[19.2022836,50.0945369]},"properties":{"@id":"node/31901734","@relations":[{"role":"admin_centre","rel":5616380,"reltags":{"admin_level":"8","boundary":"administrative","name":"Kopciowice","name:de":"Kopziowitz","name:pl":"Kopciowice","type":"boundary","wikidata":"Q6431056","wikipedia":"pl:Kopciowice"}}]},"id":"node/31901734"},
{"type":"Feature","geometry":{"type":"Point","coordinates":[19.0215852,50.2598987]},"properties":{"@id":"node/31901874","@relations":[{"role":"admin_centre","rel":1513057,"reltags":{"admin_level":"8","alt_name:fr":"Catovice","boundary":"administrative","name":"Katowice","name:am":"ካቶቪጸ","name:ar":"كاتوفيتسه","name:be":"Катавіцы","name:bg":"Катовице","name:crh":"Katovitse","name:cs":"Katovice","name:cv":"Катовица","name:de":"Kattowitz","name:dv":"ކެޓޮވިސް","name:el":"Κατοβίτσε","name:fa":"کاتوویتس","name:fr":"Katowice","name:he":"קטוביץ","name:hy":"Կատովիցե","name:ja":"カトヴィツェ","name:ka":"კატოვიცე","name:kk":"Катовице","name:kn":"ಕತೋವೀಸ್ಸ","name:ko":"카토비체","name:ku":"Katovîts","name:ky":"Катовице","name:la":"Katovicum","name:lt":"Katovicai","name:lv":"Katovice","name:mdf":"Катовице","name:mk":"Катовице","name:mr":"कातोवित्सा","name:nap":"Katovice","name:ne":"क्याटोभिस","name:os":"Катовице","name:pl":"Katowice","name:pnb":"کاتووچ","name:prefix":"miasto","name:rmy":"Katovice","name:ru":"Катовице","name:sk":"Katovice","name:sl":"Katovice","name:sr":"Катовице","name:szl":"Katowice","name:th":"คาโตวีตเซ","name:tt":"Katovitse","name:udm":"Катовице","name:uk":"Катовіце","name:vep":"Katovice","name:yi":"קאטאוויץ","name:zh":"卡托维兹","old_name:pl":"Stalinogród","type":"boundary","wikidata":"Q588","wikipedia":"pl:Katowice"}}]},"id":"node/31901874"},
{"type":"Feature","geometry":{"type":"Point","coordinates":[19.1428952,50.0464709]},"properties":{"@id":"node/31901911","@relations":[{"role":"admin_centre","rel":5605412,"reltags":{"admin_level":"8","boundary":"administrative","name":"Jedlina","type":"boundary","wikidata":"Q659580","wikipedia":"pl:Jedlina (województwo śląskie)"}}]},"id":"node/31901911"},
{"type":"Feature","geometry":{"type":"Point","coordinates":[19.2721559,50.203439]},"properties":{"@id":"node/31901916","@relations":[{"role":"admin_centre","rel":2425994,"reltags":{"admin_level":"8","boundary":"administrative","name":"Jaworzno","name:ar":"يافورجنو","name:be":"Явожна","name:bg":"Явожно","name:de":"Jaworzno","name:fa":"یاووژنو","name:ja":"ヤヴォジュノ","name:ko":"야보주노","name:lt":"Javožnas","name:lv":"Javožno","name:pl":"Jaworzno","name:prefix":"miasto","name:ru":"Явожно","name:sr":"Јавожно","name:uk":"Явожно","name:zh":"亚沃日诺","population":"89827","population:date":"2021-06-30","source:population":"https://www.polskawliczbach.pl/Jaworzno","type":"boundary","wikidata":"Q158006","wikipedia":"pl:Jaworzno"}}]},"id":"node/31901916"},
{"type":"Feature","geometry":{"type":"Point","coordinates":[19.1854676,50.1467621]},"properties":{"@id":"node/31902084","@relations":[{"role":"admin_centre","rel":2828735,"reltags":{"admin_level":"8","boundary":"administrative","name":"Imielin","name:prefix":"miasto","name:szl":"Imielin","population":"9333","population:date":"2021-06-30","source:population":"https://www.polskawliczbach.pl/Imielin","type":"boundary","wikidata":"Q185798","wikipedia":"pl:Imielin"}}]},"id":"node/31902084"},
{"type":"Feature","geometry":{"type":"Point","coordinates":[19.0736572,50.3184581]},"properties":{"@id":"node/31902399","@relations":[{"role":"admin_centre","rel":2310833,"reltags":{"admin_level":"8","boundary":"administrative","name":"Czeladź","name:ja":"チェラチ","name:lt":"Čeliadzė","name:pl":"Czeladź","name:prefix":"miasto","name:szl":"Čeladź","population":"30854","population:date":"2021-06-30","source:population":"https://www.polskawliczbach.pl/Czeladz","type":"boundary","wikidata":"Q161605","wikipedia":"pl:Czeladź (miasto)"}}]},"id":"node/31902399"},
{"type":"Feature","geometry":{"type":"Point","coordinates":[19.19848,50.1110253]},"properties":{"@id":"node/31902525","@relations":[{"role":"admin_centre","rel":5616379,"reltags":{"admin_level":"8","boundary":"administrative","name":"Chełm Śląski","name:de":"Groß Chelm","name:pl":"Chełm Śląski","type":"boundary","wikidata":"Q12054760","wikipedia":"pl:Chełm Śląski"}}]},"id":"node/31902525"},
{"type":"Feature","geometry":{"type":"Point","coordinates":[19.2228109,50.1027806]},"properties":{"@id":"node/31902527","@relations":[{"role":"admin_centre","rel":5616378,"reltags":{"admin_level":"8","boundary":"administrative","name":"Chełm Mały","name:de":"Klein Chelm","name:pl":"Chełm Mały","type":"boundary","wikidata":"Q5094686","wikipedia":"pl:Chełm Mały"}}]},"id":"node/31902527"},
{"type":"Feature","geometry":{"type":"Point","coordinates":[19.0611384,50.0476343]},"properties":{"@id":"node/31902786","@relations":[{"role":"admin_centre","rel":5605420,"reltags":{"admin_level":"8","boundary":"administrative","name":"Nowe Bojszowy","type":"boundary","wikidata":"Q4938693","wikipedia":"pl:Bojszowy Nowe"}}]},"id":"node/31902786"},
{"type":"Feature","geometry":{"type":"Point","coordinates":[19.0998925,50.0573517]},"properties":{"@id":"node/31902798","@relations":[{"role":"admin_centre","rel":5605579,"reltags":{"admin_level":"8","boundary":"administrative","name":"Bojszowy","type":"boundary","wikidata":"Q891194","wikipedia":"pl:Bojszowy"}}]},"id":"node/31902798"},
{"type":"Feature","geometry":{"type":"Point","coordinates":[19.0918262,50.0931922]},"properties":{"@id":"node/31902885","@relations":[{"role":"admin_centre","rel":2828733,"reltags":{"admin_level":"8","boundary":"administrative","name":"Bieruń","name:prefix":"miasto","name:szl":"Bieruń","population":"19328","population:date":"2021-06-30","source:population":"https://www.polskawliczbach.pl/Bierun","type":"boundary","wikidata":"Q325108","wikipedia":"pl:Bieruń"}}]},"id":"node/31902885"},
{"type":"Feature","geometry":{"type":"Point","coordinates":[19.1322201,50.3230785]},"properties":{"@id":"node/31902942","@relations":[{"role":"admin_centre","rel":2832465,"reltags":{"admin_level":"8","boundary":"administrative","name":"Będzin","name:de":"Bendsburg","name:lt":"Bendzinas","name:pl":"Będzin","name:prefix":"miasto","population":"55542","population:date":"2021-06-30","source:population":"https://www.polskawliczbach.pl/Bedzin","type":"boundary","wikidata":"Q461513","wikipedia":"pl:Będzin"}}]},"id":"node/31902942"},
{"type":"Feature","geometry":{"type":"Point","coordinates":[18.6163805,50.2479235]},"properties":{"@id":"node/31916350","@relations":[{"role":"admin_centre","rel":19754548,"reltags":{"admin_level":"8","boundary":"administrative","name":"Żernica","teryt:simc":"0219075","type":"boundary","wikidata":"Q8083272","wikipedia":"pl:Żernica"}}]},"id":"node/31916350"},
{"type":"Feature","geometry":{"type":"Point","coordinates":[18.7863749,50.3086154]},"properties":{"@id":"node/31916531","@relations":[{"role":"admin_centre","rel":2166495,"reltags":{"admin_level":"8","boundary":"administrative","name":"Zabrze","name:be":"Забжэ","name:bg":"Забже","name:bs":"Zabže","name:de":"Zabrze","name:fa":"زابژه","name:he":"זאבז'ה","name:ja":"ザブジェ","name:ko":"자브제","name:lt":"Zabžas","name:lv":"Zabže","name:mk":"Забже","name:pl":"Zabrze","name:prefix":"miasto","name:ru":"Забже","name:sr":"Забже","name:szl":"Zŏbrze","name:th":"ซาบเช","name:uk":"Забже","name:uz":"Zabje","name:zh":"扎布热","old_name:de":"Hindenburg O.S.","population":"169831","population:date":"2021-06-30","source:population":"https://www.polskawliczbach.pl/Zabrze","teryt:rm":"96","teryt:simc":"0945380","type":"boundary","wikidata":"Q103892","wikipedia":"pl:Zabrze"}}]},"id":"node/31916531"},
{"type":"Feature","geometry":{"type":"Point","coordinates":[18.8987036,50.134874]},"properties":{"@id":"node/31916549","@relations":[{"role":"admin_centre","rel":5603798,"reltags":{"admin_level":"8","boundary":"administrative","name":"Wyry","name:de":"Wyrow","name:fa":"وره","name:uk":"Вири","population":"3727","type":"boundary","wikidata":"Q3078240","wikipedia":"pl:Wyry"}}]},"id":"node/31916549"},
{"type":"Feature","geometry":{"type":"Point","coordinates":[18.4289297,50.4121815]},"properties":{"@id":"node/31916685","@relations":[{"role":"admin_centre","rel":4728984,"reltags":{"admin_level":"8","boundary":"administrative","name":"Widów","name:prefix":"wieś","teryt:typ":"wieś","type":"boundary","wikidata":"Q7998842","wikipedia":"pl:Widów_(województwo_śląskie)"}}]},"id":"node/31916685"},
{"type":"Feature","geometry":{"type":"Point","coordinates":[18.4646542,50.2550733]},"properties":{"@id":"node/31916731","@relations":[{"role":"admin_centre","rel":19392744,"reltags":{"admin_level":"8","boundary":"administrative","name":"Tworóg Mały","teryt:simc":"0221994","type":"boundary","wikidata":"Q7859506","wikipedia":"pl:Tworóg Mały"}}]},"id":"node/31916731"},
{"type":"Feature","geometry":{"type":"Point","coordinates":[18.5284318,50.3724629]},"properties":{"@id":"node/31916843","@relations":[{"role":"admin_centre","rel":4726637,"reltags":{"admin_level":"8","boundary":"administrative","name":"Taciszów","name:prefix":"wieś","teryt:typ":"wieś","type":"boundary","wikidata":"Q7673891","wikipedia":"pl:Taciszów"}}]},"id":"node/31916843"},
{"type":"Feature","geometry":{"type":"Point","coordinates":[18.9195066,50.2905758]},"properties":{"@id":"node/31916888","@relations":[{"role":"admin_centre","rel":2426004,"reltags":{"admin_level":"8","boundary":"administrative","name":"Świętochłowice","name:ar":"شفينتوخوفيتسه","name:bg":"Швентохловице","name:bs":"Svjetohlovice","name:de":"Schwientochlowitz","name:el":"Σβιετοχλόβιτσε","name:fa":"اشفینتوخوویتسه","name:he":"שוויינטוחלוביצה","name:ja":"シフィエントフウォヴィツェ","name:ko":"시비엥토흐워비체","name:lt":"Sventochlovicės","name:lv":"Sventohlovice","name:pl":"Świętochłowice","name:prefix":"miasto","name:ru":"Свентохловице","name:sr":"Свјентохловице","name:szl":"Świyntochlowice","name:uk":"Свентохловіце","name:zh":"希维托赫洛维采","population":"48817","population:date":"2021-06-30","source:population":"https://www.polskawliczbach.pl/Swietochlowice","type":"boundary","wikidata":"Q45197","wikipedia":"pl:Świętochłowice"}}]},"id":"node/31916888"},
{"type":"Feature","geometry":{"type":"Point","coordinates":[18.5142637,50.206473]},"properties":{"@id":"node/31917055","@relations":[{"role":"admin_centre","rel":19754546,"reltags":{"admin_level":"8","boundary":"administrative","name":"Stanica","teryt:simc":"0219052","type":"boundary","wikidata":"Q4745459","wikipedia":"pl:Stanica (województwo śląskie)"}}]},"id":"node/31917055"},
{"type":"Feature","geometry":{"type":"Point","coordinates":[18.5298588,50.2722844]},"properties":{"@id":"node/31917182","@relations":[{"role":"admin_centre","rel":2818017,"reltags":{"admin_level":"8","boundary":"administrative","name":"Sośnicowice","name:de":"Kieferstädtel","name:pl":"Sośnicowice","name:prefix":"miasto","name:szl":"Sośnicowice","population":"1938","population:date":"2021-06-30","source:population":"https://www.polskawliczbach.pl/Sosnicowice","type":"boundary","wikidata":"Q777091","wikipedia":"pl:Sośnicowice"}}]},"id":"node/31917182"},
{"type":"Feature","geometry":{"type":"Point","coordinates":[18.4902068,50.4181722]},"properties":{"@id":"node/31917214","@relations":[{"role":"admin_centre","rel":4728983,"reltags":{"admin_level":"8","boundary":"administrative","name":"Słupsko","name:prefix":"wieś","teryt:typ":"wieś","type":"boundary","wikidata":"Q7667522","wikipedia":"pl:Słupsko_(województwo_śląskie)"}}]},"id":"node/31917214"},
{"type":"Feature","geometry":{"type":"Point","coordinates":[18.5608247,50.3552241]},"properties":{"@id":"node/31917312","@relations":[{"role":"admin_centre","rel":4726621,"reltags":{"admin_level":"8","boundary":"administrative","name":"Rzeczyce","name:prefix":"wieś","teryt:typ":"wieś","type":"boundary","wikidata":"Q7385708","wikipedia":"pl:Rzeczyce_(województwo_śląskie)"}}]},"id":"node/31917312"},
{"type":"Feature","geometry":{"type":"Point","coordinates":[18.8747933,50.2858001]},"properties":{"@id":"node/31917353","@relations":[{"role":"admin_centre","rel":2425997,"reltags":{"admin_level":"8","boundary":"administrative","name":"Ruda Śląska","name:bg":"Руда Силезка","name:de":"Ruda O.S.","name:fa":"رودا شلوسکا","name:ja":"ルダ・シロンスカ","name:ko":"루다실롱스카","name:lt":"Silezijos Ruda","name:lv":"Ruda Slonska","name:pl":"Ruda Śląska","name:prefix":"miasto","name:ru":"Руда-Слёнская","name:sr":"Руда Шлеска","name:szl":"Ruda","name:th":"รูดาซลอนสกา","name:uk":"Руда-Шльонська","name:zh":"鲁达希隆斯卡","population":"135695","population:date":"2021-06-30","source:population":"https://www.polskawliczbach.pl/Ruda_Slaska","type":"boundary","wikidata":"Q108679","wikipedia":"pl:Ruda Śląska"}}]},"id":"node/31917353"},
{"type":"Feature","geometry":{"type":"Point","coordinates":[18.9231857,50.3470387]},"properties":{"@id":"node/171379806","@relations":[{"role":"admin_centre","rel":2425989,"reltags":{"admin_level":"8","boundary":"administrative","name":"Bytom","name:be":"Бытам","name:bg":"Битом","name:crh":"Bıtom","name:de":"Beuthen O.S.","name:fa":"بیتوم","name:he":"ביטום","name:ja":"ビトム","name:ko":"비톰","name:la":"Bithomia","name:lt":"Bytomas","name:lv":"Bitoma","name:pl":"Bytom","name:prefix":"miasto","name:ru":"Бытом","name:sr":"Битом","name:szl":"Bytůń","name:uk":"Битом","name:zh":"比托姆","population":"162250","population:date":"2021-06-30","source:population":"https://www.polskawliczbach.pl/Bytom","teryt:rm":"96","teryt:simc":"0938670","type":"boundary","wikidata":"Q102350","wikipedia":"pl:Bytom"}}]},"id":"node/171379806"},
{"type":"Feature","geometry":{"type":"Point","coordinates":[19.1342944,50.2780834]},"properties":{"@id":"node/190817334","@relations":[{"role":"admin_centre","rel":2426000,"reltags":{"admin_level":"8","boundary":"administrative","name":"Sosnowiec","name:bg":"Сосновец","name:de":"Sosnowitz","name:fa":"ساسنوویتس","name:he":"סוסנוביץ","name:ja":"ソスノヴィエツ","name:ko":"소스노비에츠","name:lt":"Sosnovecas","name:lv":"Sosnoveca","name:pl":"Sosnowiec","name:prefix":"miasto","name:ru":"Сосновец","name:sr":"Сосновјец","name:uk":"Сосновець","name:zh":"索斯诺维茨","population":"195978","population:date":"2021-06-30","source:population":"https://www.polskawliczbach.pl/Sosnowiec","type":"boundary","wikidata":"Q105060","wikipedia":"pl:Sosnowiec"}}]},"id":"node/190817334"},
{"type":"Feature","geometry":{"type":"Point","coordinates":[19.1315264,50.1379295]},"properties":{"@id":"node/244025165","@relations":[{"role":"admin_centre","rel":2828736,"reltags":{"admin_level":"8","boundary":"administrative","name":"Lędziny","name:de":"Lendzin","name:pl":"Lędziny","name:prefix":"miasto","name:szl":"Lyndziny","population":"16721","population:date":"2021-06-30","source:population":"https://www.polskawliczbach.pl/Ledziny","type":"boundary","wikidata":"Q276858","wikipedia":"pl:Lędziny"}}]},"id":"node/244025165"},
{"type":"Feature","geometry":{"type":"Point","coordinates":[18.5419933,50.0955793]},"properties":{"@id":"node/253525668","@relations":[{"role":"admin_centre","rel":2425998,"reltags":{"admin_level":"8","boundary":"administrative","name":"Rybnik","name:ar":"ريبنيك","name:be":"Рыбнік","name:be-tarask":"Рыбнік","name:bg":"Рибник","name:el":"Ρίμπνικ","name:fa":"ربنیک","name:ja":"リブニク","name:ko":"리브니크","name:lt":"Rybnikas","name:lv":"Ribņika","name:pl":"Rybnik","name:prefix":"miasto","name:ru":"Рыбник","name:sr":"Рибњик","name:szl":"Rybńik","name:uk":"Рибник","name:zh":"雷布尼克","type":"boundary","wikidata":"Q107094","wikipedia":"pl:Rybnik"}}]},"id":"node/253525668"},
{"type":"Feature","geometry":{"type":"Point","coordinates":[18.9456429,50.3840312]},"properties":{"@id":"node/253552911","@relations":[{"role":"admin_centre","rel":2425996,"reltags":{"admin_level":"8","boundary":"administrative","name":"Piekary Śląskie","name:bg":"Пекари Силезко","name:de":"Deutsch Piekar","name:ja":"ピェカルィ・シロンスキェ","name:ko":"피에카리실롱스키에","name:lt":"Pekarai","name:lv":"Pekari Slonski","name:pl":"Piekary Śląskie","name:prefix":"miasto","name:ru":"Пекары-Слёнске","name:sr":"Пјекари Слонскје","name:szl":"Piekary","name:uk":"Пекари-Шльонські","name:zh":"希隆斯克地區佩卡雷","population":"54468","population:date":"2021-06-30","source:population":"https://www.polskawliczbach.pl/Piekary_Slaskie","type":"boundary","wikidata":"Q158488","wikipedia":"pl:Piekary Śląskie"}}]},"id":"node/253552911"},
{"type":"Feature","geometry":{"type":"Point","coordinates":[18.7270541,50.2241331]},"properties":{"@id":"node/255360199","@relations":[{"role":"admin_centre","rel":5657560,"reltags":{"admin_level":"8","boundary":"administrative","name":"Gierałtowice","type":"boundary","wikidata":"Q992479","wikipedia":"pl:Gierałtowice (województwo śląskie)"}}]},"id":"node/255360199"},
{"type":"Feature","geometry":{"type":"Point","coordinates":[18.6277201,50.3980823]},"properties":{"@id":"node/257059199","@relations":[{"role":"label","rel":6917026,"reltags":{"admin_level":"8","boundary":"administrative","name":"Pyskowice","name:de":"Peiskretscham","name:pl":"Pyskowice","name:prefix":"miasto","name:szl":"Pyskowice","population":"18642","type":"boundary","wikidata":"Q1001326","wikipedia":"pl:Pyskowice"}}]},"id":"node/257059199"},
{"type":"Feature","geometry":{"type":"Point","coordinates":[18.4632649,50.409376]},"properties":{"@id":"node/259429374","@relations":[{"role":"admin_centre","rel":4728979,"reltags":{"admin_level":"8","boundary":"administrative","name":"Poniszowice","name:prefix":"wieś","teryt:typ":"wieś","type":"boundary","wikidata":"Q177259","wikipedia":"pl:Poniszowice"}}]},"id":"node/259429374"},
{"type":"Feature","geometry":{"type":"Point","coordinates":[18.6706574,50.2216536]},"properties":{"@id":"node/261839053","@relations":[{"role":"admin_centre","rel":2433397,"reltags":{"admin_level":"8","boundary":"administrative","name":"Knurów","name:de":"Knurow","name:ja":"クヌルフ","name:pl":"Knurów","name:prefix":"miasto","name:ru":"Кнурув","name:szl":"Knurōw","population":"37657","population:date":"2021-06-30","source:population":"https://www.polskawliczbach.pl/Knurow","type":"boundary","wikidata":"Q276860","wikipedia":"pl:Knurów"}}]},"id":"node/261839053"},
{"type":"Feature","geometry":{"type":"Point","coordinates":[18.5274375,50.3480384]},"properties":{"@id":"node/288779503","@relations":[{"role":"admin_centre","rel":4726625,"reltags":{"admin_level":"8","boundary":"administrative","name":"Kleszczów","name:prefix":"wieś","teryt:typ":"wieś","type":"boundary","wikidata":"Q6420693","wikipedia":"pl:Kleszczów_(województwo_śląskie)"}}]},"id":"node/288779503"},
{"type":"Feature","geometry":{"type":"Point","coordinates":[18.5320072,50.3911107]},"properties":{"@id":"node/290474556","@relations":[{"role":"admin_centre","rel":4726649,"reltags":{"admin_level":"8","boundary":"administrative","name":"Bycina","name:prefix":"wieś","teryt:typ":"wieś","type":"boundary","wikidata":"Q5003976","wikipedia":"pl:Bycina"}}]},"id":"node/290474556"},
{"type":"Feature","geometry":{"type":"Point","coordinates":[18.9044238,50.1691812]},"properties":{"@id":"node/322709211","@relations":[{"role":"admin_centre","rel":2143691,"reltags":{"admin_level":"8","boundary":"administrative","name":"Mikołów","name:be":"Міколаў","name:bg":"Миколов","name:cs":"Mikulov","name:de":"Nikolai","name:fa":"میکوووو","name:he":"מיקולוב","name:ja":"ミコウフ","name:lt":"Mikoluvas","name:lv":"Mikolova","name:pl":"Mikołów","name:prefix":"miasto","name:ru":"Миколув","name:szl":"Mikołōw","name:uk":"Міколув","name:zh":"米科武夫","population":"40994","population:date":"2021-06-30","source:population":"https://www.polskawliczbach.pl/Mikolow","type":"boundary","wikidata":"Q659905","wikipedia":"pl:Mikołów"}}]},"id":"node/322709211"},
{"type":"Feature","geometry":{"type":"Point","coordinates":[18.4911381,50.400104]},"properties":{"@id":"node/364434453","@relations":[{"role":"admin_centre","rel":4728978,"reltags":{"admin_level":"8","boundary":"administrative","name":"Niewiesze","name:prefix":"wieś","teryt:typ":"wieś","type":"boundary","wikidata":"Q11791852","wikipedia":"pl:Niewiesze"}}]},"id":"node/364434453"},
{"type":"Feature","geometry":{"type":"Point","coordinates":[18.4587816,50.3476649]},"properties":{"@id":"node/372771387","@relations":[{"role":"admin_centre","rel":4728981,"reltags":{"admin_level":"8","boundary":"administrative","name":"Rudno","name:prefix":"wieś","teryt:typ":"wieś","type":"boundary","wikidata":"Q7377124","wikipedia":"pl:Rudno_(województwo_śląskie)"}}]},"id":"node/372771387"},
{"type":"Feature","geometry":{"type":"Point","coordinates":[18.4832564,50.3346097]},"properties":{"@id":"node/372817734","@relations":[{"role":"admin_centre","rel":4728975,"reltags":{"admin_level":"8","boundary":"administrative","name":"Bojszów","name:prefix":"wieś","teryt:typ":"wieś","type":"boundary","wikidata":"Q4938690","wikipedia":"pl:Bojszów"}}]},"id":"node/372817734"},
{"type":"Feature","geometry":{"type":"Point","coordinates":[18.4957713,50.2950777]},"properties":{"@id":"node/372817737","@relations":[{"role":"admin_centre","rel":19392741,"reltags":{"admin_level":"8","boundary":"administrative","name":"Rachowice","teryt:simc":"0221882","type":"boundary","wikidata":"Q7279556","wikipedia":"pl:Rachowice"}}]},"id":"node/372817737"},
{"type":"Feature","geometry":{"type":"Point","coordinates":[18.464062,50.2799324]},"properties":{"@id":"node/372817740","@relations":[{"role":"admin_centre","rel":19392742,"reltags":{"admin_level":"8","boundary":"administrative","name":"Sierakowice","teryt:simc":"0221899","type":"boundary","wikidata":"Q979581","wikipedia":"pl:Sierakowice (województwo śląskie)"}}]},"id":"node/372817740"},
{"type":"Feature","geometry":{"type":"Point","coordinates":[18.5631343,50.3048116]},"properties":{"@id":"node/378239175","@relations":[{"role":"admin_centre","rel":19392739,"reltags":{"admin_level":"8","boundary":"administrative","name":"Kozłów","teryt:simc":"0221847","type":"boundary","wikidata":"Q6435439","wikipedia":"pl:Kozłów (województwo śląskie)"}}]},"id":"node/378239175"},
{"type":"Feature","geometry":{"type":"Point","coordinates":[18.5443374,50.287956]},"properties":{"@id":"node/378268080","@relations":[{"role":"admin_centre","rel":19392740,"reltags":{"admin_level":"8","boundary":"administrative","name":"Łany Wielkie","teryt:simc":"0221860","type":"boundary","wikidata":"Q8080443","wikipedia":"pl:Łany Wielkie (powiat gliwicki)"}}]},"id":"node/378268080"},
{"type":"Feature","geometry":{"type":"Point","coordinates":[18.6123215,50.2260301]},"properties":{"@id":"node/389515478","@relations":[{"role":"admin_centre","rel":19754544,"reltags":{"admin_level":"8","boundary":"administrative","name":"Nieborowice","teryt:simc":"0219023","type":"boundary","wikidata":"Q7030997","wikipedia":"pl:Nieborowice"}}]},"id":"node/389515478"},
{"type":"Feature","geometry":{"type":"Point","coordinates":[18.5626191,50.2147849]},"properties":{"@id":"node/389905981","@relations":[{"role":"admin_centre","rel":19754545,"reltags":{"admin_level":"8","boundary":"administrative","name":"Pilchowice","teryt:simc":"0219046","type":"boundary","wikidata":"Q965402","wikipedia":"pl:Pilchowice (województwo śląskie)"}}]},"id":"node/389905981"},
{"type":"Feature","geometry":{"type":"Point","coordinates":[18.4746601,50.2269361]},"properties":{"@id":"node/391443996","@relations":[{"role":"admin_centre","rel":19392738,"reltags":{"admin_level":"8","boundary":"administrative","name":"Bargłówka","teryt:simc":"0221830","type":"boundary","wikidata":"Q4860630","wikipedia":"pl:Bargłówka (województwo śląskie)"}}]},"id":"node/391443996"},
{"type":"Feature","geometry":{"type":"Point","coordinates":[18.5118246,50.254026]},"properties":{"@id":"node/393092745","@relations":[{"role":"admin_centre","rel":19392745,"reltags":{"admin_level":"8","boundary":"administrative","name":"Trachy","teryt:simc":"0221965","type":"boundary","wikidata":"Q7831351","wikipedia":"pl:Trachy"}}]},"id":"node/393092745"},
{"type":"Feature","geometry":{"type":"Point","coordinates":[18.9026247,50.4002717]},"properties":{"@id":"node/420622210","@relations":[{"role":"admin_centre","rel":2706267,"reltags":{"admin_level":"8","boundary":"administrative","name":"Radzionków","name:de":"Radzionkau","name:pl":"Radzionków","name:prefix":"miasto","name:szl":"Radziōnkōw","population":"16883","population:date":"2021-06-30","source:population":"https://www.polskawliczbach.pl/Radzionkow","type":"boundary","wikidata":"Q584055","wikipedia":"pl:Radzionków"}}]},"id":"node/420622210"},
{"type":"Feature","geometry":{"type":"Point","coordinates":[18.9339311,50.0607873]},"properties":{"@id":"node/450231449","@relations":[{"role":"admin_centre","rel":5587869,"reltags":{"admin_level":"8","boundary":"administrative","name":"Kobiór","population":"4902","source:population":"http://stat.gov.pl/obszary-tematyczne/ludnosc/ludnosc/ludnosc-stan-i-struktura-ludnosci-oraz-ruch-naturalny-w-przekroju-terytorialnym-w-2013-r-stan-w-dniu-31-xii,6,12.html","type":"boundary","wikidata":"Q3141273","wikipedia":"pl:Kobiór"}}]},"id":"node/450231449"},
{"type":"Feature","geometry":{"type":"Point","coordinates":[18.7789532,50.2132854]},"properties":{"@id":"node/493764268","@relations":[{"role":"admin_centre","rel":5657665,"reltags":{"admin_level":"8","boundary":"administrative","name":"Chudów","type":"boundary","wikidata":"Q5115941","wikipedia":"pl:Chudów (województwo śląskie)"}}]},"id":"node/493764268"},
{"type":"Feature","geometry":{"type":"Point","coordinates":[18.7817607,50.2316928]},"properties":{"@id":"node/493764269","@relations":[{"role":"admin_centre","rel":5657666,"reltags":{"admin_level":"8","boundary":"administrative","name":"Paniówki","name:de":"Klein Paniow","type":"boundary","wikidata":"Q1020495","wikipedia":"pl:Paniówki"}}]},"id":"node/493764269"},
{"type":"Feature","geometry":{"type":"Point","coordinates":[18.6113225,50.2157376]},"properties":{"@id":"node/502884653","@relations":[{"role":"admin_centre","rel":19754542,"reltags":{"admin_level":"8","boundary":"administrative","name":"Kuźnia Nieborowska","teryt:simc":"0219000","type":"boundary","wikidata":"Q6449424","wikipedia":"pl:Kuźnia Nieborowska"}}]},"id":"node/502884653"},
{"type":"Feature","geometry":{"type":"Point","coordinates":[18.7598719,50.1855079]},"properties":{"@id":"node/612078918","@relations":[{"role":"admin_centre","rel":5657561,"reltags":{"admin_level":"8","boundary":"administrative","name":"Ornontowice","name:de":"Ornontowitz","name:fa":"اورنونتوویتسه","name:uk":"Орнонтовіце","population":"5941","source:population":"http://stat.gov.pl/obszary-tematyczne/ludnosc/ludnosc/ludnosc-stan-i-struktura-ludnosci-oraz-ruch-naturalny-w-przekroju-terytorialnym-w-2013-r-stan-w-dniu-31-xii,6,12.html","type":"boundary","wikidata":"Q290946","wikipedia":"pl:Ornontowice"}}]},"id":"node/612078918"},
{"type":"Feature","geometry":{"type":"Point","coordinates":[18.8390661,50.1500892]},"properties":{"@id":"node/692604464","@relations":[{"role":"admin_centre","rel":2812253,"reltags":{"admin_level":"8","boundary":"administrative","name":"Łaziska Górne","name:de":"Ober Lazisk","name:pl":"Łaziska Górne","name:prefix":"miasto","name:uk":"Лазиська Ґурне","population":"22062","population:date":"2021-06-30","source:population":"https://www.polskawliczbach.pl/Laziska_Gorne","type":"boundary"}}]},"id":"node/692604464"},
{"type":"Feature","geometry":{"type":"Point","coordinates":[18.7420471,50.2493978]},"properties":{"@id":"node/692604475","@relations":[{"role":"admin_centre","rel":5657562,"reltags":{"admin_level":"8","boundary":"administrative","name":"Przyszowice","type":"boundary","wikidata":"Q4704001","wikipedia":"pl:Przyszowice"}}]},"id":"node/692604475"},
{"type":"Feature","geometry":{"type":"Point","coordinates":[18.5906326,50.1923169]},"properties":{"@id":"node/692604478","@relations":[{"role":"admin_centre","rel":19754547,"reltags":{"admin_level":"8","boundary":"administrative","name":"Wilcza","teryt:simc":"0219069","type":"boundary","wikidata":"Q1570938","wikipedia":"pl:Wilcza (województwo śląskie)"}}]},"id":"node/692604478"},
{"type":"Feature","geometry":{"type":"Point","coordinates":[18.7755707,50.1438909]},"properties":{"@id":"node/692604485","@relations":[{"role":"admin_centre","rel":2143714,"reltags":{"admin_level":"8","boundary":"administrative","name":"Orzesze","name:de":"Orzesche","name:pl":"Orzesze","name:prefix":"miasto","population":"21324","population:date":"2021-06-30","source:population":"https://www.polskawliczbach.pl/Orzesze","type":"boundary","wikidata":"Q1001207","wikipedia":"pl:Orzesze"}}]},"id":"node/692604485"},
{"type":"Feature","geometry":{"type":"Point","coordinates":[18.88297,50.10105]},"properties":{"@id":"node/692604500","@relations":[{"role":"admin_centre","rel":5603388,"reltags":{"admin_level":"8","boundary":"administrative","name":"Gostyń","type":"boundary","wikidata":"Q5587586","wikipedia":"pl:Gostyń (województwo śląskie)"}}]},"id":"node/692604500"},
{"type":"Feature","geometry":{"type":"Point","coordinates":[19.06428,50.02388]},"properties":{"@id":"node/692604506","@relations":[{"role":"admin_centre","rel":5605413,"reltags":{"admin_level":"8","boundary":"administrative","name":"Międzyrzecze","type":"boundary","wikidata":"Q6885061","wikipedia":"pl:Międzyrzecze (województwo śląskie)"}}]},"id":"node/692604506"},
{"type":"Feature","geometry":{"type":"Point","coordinates":[18.4411953,50.3215374]},"properties":{"@id":"node/692604702","@relations":[{"role":"admin_centre","rel":4728986,"reltags":{"admin_level":"8","boundary":"administrative","name":"Łącza","name:prefix":"wieś","teryt:typ":"wieś","type":"boundary","wikidata":"Q8081152","wikipedia":"pl:Łącza (wieś)"}}]},"id":"node/692604702"},
{"type":"Feature","geometry":{"type":"Point","coordinates":[18.5576757,50.2311511]},"properties":{"@id":"node/692604854","@relations":[{"role":"admin_centre","rel":19754543,"reltags":{"admin_level":"8","boundary":"administrative","name":"Leboszowice","teryt:simc":"0219017","type":"boundary","wikidata":"Q6511397","wikipedia":"pl:Leboszowice"}}]},"id":"node/692604854"},
{"type":"Feature","geometry":{"type":"Point","coordinates":[18.6531994,50.1449958]},"properties":{"@id":"node/692604910","@relations":[{"role":"admin_centre","rel":1635656,"reltags":{"admin_level":"8","boundary":"administrative","name":"Czerwionka-Leszczyny","name:bg":"Червьонка-Лешчини","name:de":"Tscherwionka-Leschczin","name:lt":"Červionka-Leščynos","name:lv":"Červjonka-Leščini","name:pl":"Czerwionka-Leszczyny","name:prefix":"miasto","name:ru":"Червёнка-Лещины","name:sr":"Червјонка-Лешчини","name:szl":"Czyrwiōnka-Leszczyny","name:uk":"Червйонка-Лещини","population":"27790","population:date":"2021-06-30","source:population":"https://www.polskawliczbach.pl/Czerwionka_Leszczyny","type":"boundary","wikidata":"Q1005538","wikipedia":"pl:Czerwionka-Leszczyny"}}]},"id":"node/692604910"},
{"type":"Feature","geometry":{"type":"Point","coordinates":[19.0366218,50.3652915]},"properties":{"@id":"node/692610711","@relations":[{"role":"admin_centre","rel":2832468,"reltags":{"admin_level":"8","boundary":"administrative","name":"Wojkowice","name:de":"Woikowize","name:ja":"ヴォイコヴィツェ","name:pl":"Wojkowice","name:prefix":"miasto","name:ru":"Войковице","name:uk":"Войковіце","name:zh":"沃伊科維采","population":"8847","population:date":"2021-06-30","source:population":"https://www.polskawliczbach.pl/Wojkowice","type":"boundary","wikidata":"Q985640","wikipedia":"pl:Wojkowice"}}]},"id":"node/692610711"},
{"type":"Feature","geometry":{"type":"Point","coordinates":[18.4623752,50.433518]},"properties":{"@id":"node/1100013209","@relations":[{"role":"admin_centre","rel":4728977,"reltags":{"admin_level":"8","boundary":"administrative","name":"Niekarmia","name:prefix":"wieś","teryt:typ":"wieś","type":"boundary","wikidata":"Q7031389","wikipedia":"pl:Niekarmia"}}]},"id":"node/1100013209"},
{"type":"Feature","geometry":{"type":"Point","coordinates":[18.4277373,50.3884777]},"properties":{"@id":"node/1195263225","@relations":[{"role":"admin_centre","rel":4728985,"reltags":{"admin_level":"8","boundary":"administrative","name":"Łany","name:prefix":"wieś","teryt:typ":"wieś","type":"boundary","wikidata":"Q8080440","wikipedia":"pl:Łany (województwo śląskie)"}}]},"id":"node/1195263225"},
{"type":"Feature","geometry":{"type":"Point","coordinates":[19.1414528,50.2414715]},"properties":{"@id":"node/1282380456","@relations":[{"role":"admin_centre","rel":2425995,"reltags":{"admin_level":"8","boundary":"administrative","name":"Mysłowice","name:bg":"Мисловице","name:de":"Myslowitz","name:ja":"ムィスウォヴィツェ","name:ko":"미스워비체","name:lt":"Myslovicės","name:lv":"Mislovice","name:pl":"Mysłowice","name:prefix":"miasto","name:ru":"Мысловице","name:sr":"Мисловице","name:szl":"Myslowicy","name:uk":"Мисловіце","name:zh":"梅斯沃維采","population":"74413","population:date":"2021-06-30","source:population":"https://www.polskawliczbach.pl/Myslowice","type":"boundary","wikidata":"Q161595","wikipedia":"pl:Mysłowice"}}]},"id":"node/1282380456"},
{"type":"Feature","geometry":{"type":"Point","coordinates":[18.4770184,50.3836139]},"properties":{"@id":"node/1490558633","@relations":[{"role":"admin_centre","rel":4728980,"reltags":{"admin_level":"8","boundary":"administrative","name":"Pławniowice","name:prefix":"wieś","teryt:typ":"wieś","type":"boundary","wikidata":"Q1657944","wikipedia":"pl:Pławniowice"}}]},"id":"node/1490558633"},
{"type":"Feature","geometry":{"type":"Point","coordinates":[19.2078918,50.3308692]},"properties":{"@id":"node/1507719599","@relations":[{"role":"admin_centre","rel":2425992,"reltags":{"admin_level":"8","boundary":"administrative","name":"Dąbrowa Górnicza","name:bg":"Домброва Гурнича","name:de":"Dombrowa","name:fa":"دومبرووه گورنیچا","name:he":"דומברובה","name:ja":"ドンブロヴァ・グルニチャ","name:ko":"동브로바구르니차","name:lt":"Dombrova Gurniča","name:lv":"Dombrova Gurņiča","name:pl":"Dąbrowa Górnicza","name:prefix":"miasto","name:ru":"Домброва-Гурнича","name:sr":"Домброва Горњича","name:szl":"Důmbrowa Gůrńičo","name:uk":"Домброва-Гурнича","name:zh":"栋布罗瓦古尔尼恰","population":"117516","population:date":"2021-06-30","source:population":"https://www.polskawliczbach.pl/Dabrowa_Gornicza","type":"boundary","wikidata":"Q108672","wikipedia":"pl:Dąbrowa Górnicza"}}]},"id":"node/1507719599"},
{"type":"Feature","geometry":{"type":"Point","coordinates":[18.5815657,50.3439878]},"properties":{"@id":"node/1739487365","@relations":[{"role":"admin_centre","rel":4726595,"reltags":{"admin_level":"8","boundary":"administrative","name":"Ligota Łabędzka","name:prefix":"wieś","teryt:typ":"wieś","type":"boundary","wikidata":"Q6546813","wikipedia":"pl:Ligota_Łabędzka"}}]},"id":"node/1739487365"},
{"type":"Feature","geometry":{"type":"Point","coordinates":[18.9965933,50.114397]},"properties":{"@id":"node/1751621551","@relations":[{"role":"admin_centre","rel":2426002,"reltags":{"admin_level":"8","boundary":"administrative","name":"Tychy","name:ar":"تيخي","name:az-Arab":"تیخی","name:azb":"تیخی","name:bg":"Тихи","name:crh":"Tıhı","name:de":"Tichau","name:el":"Τίχι","name:fa":"تیشی","name:ja":"ティヒ","name:ko":"티히","name:lt":"Tychos","name:lv":"Tihi","name:pl":"Tychy","name:prefix":"miasto","name:ru":"Тыхы","name:sr":"Тихи","name:th":"ทิคี","name:uk":"Тихи","name:ur":"تیچی","name:zh":"蒂黑","population":"126184","population:date":"2021-06-30","source:population":"https://www.polskawliczbach.pl/Tychy","type":"boundary","wikidata":"Q11977","wikipedia":"pl:Tychy"}}]},"id":"node/1751621551"},
{"type":"Feature","geometry":{"type":"Point","coordinates":[19.3898475,50.2984547]},"properties":{"@id":"node/1854937193","@relations":[{"role":"admin_centre","rel":2426001,"reltags":{"admin_level":"8","boundary":"administrative","name":"Sławków","name:prefix":"miasto","population":"6924","population:date":"2021-06-30","source:population":"https://www.polskawliczbach.pl/Slawkow","type":"boundary","wikidata":"Q841380","wikipedia":"pl:Sławków (województwo śląskie)"}}]},"id":"node/1854937193"},
{"type":"Feature","geometry":{"type":"Point","coordinates":[18.4044601,50.4101625]},"properties":{"@id":"node/2002256911","@relations":[{"role":"admin_centre","rel":4728976,"reltags":{"admin_level":"8","boundary":"administrative","name":"Chechło","name:prefix":"wieś","teryt:typ":"wieś","type":"boundary","wikidata":"Q5089057","wikipedia":"pl:Chechło_(województwo_śląskie)"}}]},"id":"node/2002256911"},
{"type":"Feature","geometry":{"type":"Point","coordinates":[18.5600282,50.2526594]},"properties":{"@id":"node/2335172357","@relations":[{"role":"admin_centre","rel":19392743,"reltags":{"admin_level":"8","boundary":"administrative","name":"Smolnica","teryt:simc":"0221920","type":"boundary","wikidata":"Q7546300","wikipedia":"pl:Smolnica (województwo śląskie)"}}]},"id":"node/2335172357"},
{"type":"Feature","geometry":{"type":"Point","coordinates":[19.1383411,50.2424524]},"properties":{"@id":"node/3009694952","@relations":[{"role":"subarea","rel":2425995,"reltags":{"admin_level":"8","boundary":"administrative","name":"Mysłowice","name:bg":"Мисловице","name:de":"Myslowitz","name:ja":"ムィスウォヴィツェ","name:ko":"미스워비체","name:lt":"Myslovicės","name:lv":"Mislovice","name:pl":"Mysłowice","name:prefix":"miasto","name:ru":"Мысловице","name:sr":"Мисловице","name:szl":"Myslowicy","name:uk":"Мисловіце","name:zh":"梅斯沃維采","population":"74413","population:date":"2021-06-30","source:population":"https://www.polskawliczbach.pl/Myslowice","type":"boundary","wikidata":"Q161595","wikipedia":"pl:Mysłowice"}}]},"id":"node/3009694952"},
{"type":"Feature","geometry":{"type":"Point","coordinates":[19.1390848,50.2445926]},"properties":{"@id":"node/13456193143","@relations":[{"role":"subarea","rel":2425995,"reltags":{"admin_level":"8","boundary":"administrative","name":"Mysłowice","name:bg":"Мисловице","name:de":"Myslowitz","name:ja":"ムィスウォヴィツェ","name:ko":"미스워비체","name:lt":"Myslovicės","name:lv":"Mislovice","name:pl":"Mysłowice","name:prefix":"miasto","name:ru":"Мысловице","name:sr":"Мисловице","name:szl":"Myslowicy","name:uk":"Мисловіце","name:zh":"梅斯沃維采","population":"74413","population:date":"2021-06-30","source:population":"https://www.polskawliczbach.pl/Myslowice","type":"boundary","wikidata":"Q161595","wikipedia":"pl:Mysłowice"}}]},"id":"node/13456193143"}
]}